{"type": "FeatureCollection", "features": [ {"type": "Feature", "properties": {"norad_id": 34303, "name": "COSMOS 2251 DEB", "group": "cosmos-2251-debris", "lat": -2.5364885186946475, "lon": -89.97950367907002, "alt_km": 650.4174942553173, "timestamp": "2025-12-21T20:41:08.349782+00:00", "meta": {"OBJECT_NAME": "COSMOS 2251 DEB", "OBJECT_ID": "1993-036MZ", "EPOCH": "2025-12-21T13:14:47.076000", "MEAN_MOTION": 14.54559008, "ECCENTRICITY": 0.0135444, "INCLINATION": 74.0059, "RA_OF_ASC_NODE": 271.3359, "ARG_OF_PERICENTER": 47.4694, "MEAN_ANOMALY": 128.7165, "EPHEMERIS_TYPE": 0, "CLASSIFICATION_TYPE": "U", "NORAD_CAT_ID": 34303, "ELEMENT_SET_NO": 999, "REV_AT_EPOCH": 88090, "BSTAR": 0.0011483857, "MEAN_MOTION_DOT": 5.512e-05, "MEAN_MOTION_DDOT": 0}, "tle": {"line1": "1 34303U 93036MZ  25355.55193375  .00005512  00000+0  11484-2 0  9994", "line2": "2 34303  74.0059 271.3359 0135444  47.4694 128.7165 14.54559008880901"}}, "geometry": {"type": "Point", "coordinates": [-89.97950367907002, -2.5364885186946475]}}, {"type": "Feature", "properties": {"norad_id": 34304, "name": "COSMOS 2251 DEB", "group": "cosmos-2251-debris", "lat": -67.4182825586894, "lon": 62.19298643007546, "alt_km": 705.9233610013589, "timestamp": "2025-12-21T20:41:08.349791+00:00", "meta": {"OBJECT_NAME": "COSMOS 2251 DEB", "OBJECT_ID": "1993-036NA", "EPOCH": "2025-12-20T18:54:30.430944", "MEAN_MOTION": 14.37928949, "ECCENTRICITY": 0.01290279, "INCLINATION": 74.0136, "RA_OF_ASC_NODE": 107.749, "ARG_OF_PERICENTER": 243.9015, "MEAN_ANOMALY": 243.6126, "EPHEMERIS_TYPE": 0, "CLASSIFICATION_TYPE": "U", "NORAD_CAT_ID": 34304, "ELEMENT_SET_NO": 999, "REV_AT_EPOCH": 87412, "BSTAR": 0.0010160181, "MEAN_MOTION_DOT": 3.352e-05, "MEAN_MOTION_DDOT": 0}, "tle": {"line1": "1 34304U 93036NA  25354.78785221  .00003352  00000+0  10160-2 0  9996", "line2": "2 34304  74.0136 107.7490 0129027 243.9015 243.6126 14.37928949874122"}}, "geometry": {"type": "Point", "coordinates": [62.19298643007546, -67.4182825586894]}}, {"type": "Feature", "properties": {"norad_id": 34307, "name": "COSMOS 2251 DEB", "group": "cosmos-2251-debris", "lat": -74.02658962769723, "lon": -148.72723724203595, "alt_km": 1292.9425126320757, "timestamp": "2025-12-21T20:41:08.349800+00:00", "meta": {"OBJECT_NAME": "COSMOS 2251 DEB", "OBJECT_ID": "1993-036ND", "EPOCH": "2025-12-21T00:27:32.112288", "MEAN_MOTION": 13.54332788, "ECCENTRICITY": 0.03918712, "INCLINATION": 74.0537, "RA_OF_ASC_NODE": 299.8299, "ARG_OF_PERICENTER": 128.9444, "MEAN_ANOMALY": 351.5564, "EPHEMERIS_TYPE": 0, "CLASSIFICATION_TYPE": "U", "NORAD_CAT_ID": 34307, "ELEMENT_SET_NO": 999, "REV_AT_EPOCH": 82974, "BSTAR": 0.00054593532, "MEAN_MOTION_DOT": 5.89e-06, "MEAN_MOTION_DDOT": 0}, "tle": {"line1": "1 34307U 93036ND  25355.01912167  .00000589  00000+0  54594-3 0  9996", "line2": "2 34307  74.0537 299.8299 0391871 128.9444 351.5564 13.54332788829747"}}, "geometry": {"type": "Point", "coordinates": [-148.72723724203595, -74.02658962769723]}}, {"type": "Feature", "properties": {"norad_id": 34313, "name": "COSMOS 2251 DEB", "group": "cosmos-2251-debris", "lat": 73.65624266134505, "lon": 4.91272760813522, "alt_km": 489.0200640565945, "timestamp": "2025-12-21T20:41:08.349809+00:00", "meta": {"OBJECT_NAME": "COSMOS 2251 DEB", "OBJECT_ID": "1993-036NK", "EPOCH": "2025-12-21T06:05:38.476320", "MEAN_MOTION": 15.20443238, "ECCENTRICITY": 0.00120638, "INCLINATION": 73.9719, "RA_OF_ASC_NODE": 287.5801, "ARG_OF_PERICENTER": 68.1772, "MEAN_ANOMALY": 292.0708, "EPHEMERIS_TYPE": 0, "CLASSIFICATION_TYPE": "U", "NORAD_CAT_ID": 34313, "ELEMENT_SET_NO": 999, "REV_AT_EPOCH": 89194, "BSTAR": 0.0034602189, "MEAN_MOTION_DOT": 0.00076426, "MEAN_MOTION_DDOT": 0}, "tle": {"line1": "1 34313U 93036NK  25355.25391755  .00076426  00000+0  34602-2 0  9993", "line2": "2 34313  73.9719 287.5801 0012063  68.1772 292.0708 15.20443238891947"}}, "geometry": {"type": "Point", "coordinates": [4.91272760813522, 73.65624266134505]}}, {"type": "Feature", "properties": {"norad_id": 34314, "name": "COSMOS 2251 DEB", "group": "cosmos-2251-debris", "lat": -12.846171656917411, "lon": -71.64585058656428, "alt_km": 788.6677663964538, "timestamp": "2025-12-21T20:41:08.349818+00:00", "meta": {"OBJECT_NAME": "COSMOS 2251 DEB", "OBJECT_ID": "1993-036NL", "EPOCH": "2025-12-21T14:48:12.798720", "MEAN_MOTION": 14.17444033, "ECCENTRICITY": 0.01033098, "INCLINATION": 74.006, "RA_OF_ASC_NODE": 292.5415, "ARG_OF_PERICENTER": 36.115, "MEAN_ANOMALY": 141.3742, "EPHEMERIS_TYPE": 0, "CLASSIFICATION_TYPE": "U", "NORAD_CAT_ID": 34314, "ELEMENT_SET_NO": 999, "REV_AT_EPOCH": 86783, "BSTAR": 0.0005898801, "MEAN_MOTION_DOT": 1.235e-05, "MEAN_MOTION_DDOT": 0}, "tle": {"line1": "1 34314U 93036NL  25355.61681480  .00001235  00000+0  58988-3 0  9991", "line2": "2 34314  74.0060 292.5415 0103309  36.1150 141.3742 14.17444033867839"}}, "geometry": {"type": "Point", "coordinates": [-71.64585058656428, -12.846171656917411]}}, {"type": "Feature", "properties": {"norad_id": 34316, "name": "COSMOS 2251 DEB", "group": "cosmos-2251-debris", "lat": 68.63607654463154, "lon": 91.6921190752754, "alt_km": 581.7919873758538, "timestamp": "2025-12-21T20:41:08.349827+00:00", "meta": {"OBJECT_NAME": "COSMOS 2251 DEB", "OBJECT_ID": "1993-036NN", "EPOCH": "2025-12-20T15:15:17.356320", "MEAN_MOTION": 14.9204959, "ECCENTRICITY": 0.00089033, "INCLINATION": 74.0651, "RA_OF_ASC_NODE": 321.0682, "ARG_OF_PERICENTER": 42.4363, "MEAN_ANOMALY": 317.7507, "EPHEMERIS_TYPE": 0, "CLASSIFICATION_TYPE": "U", "NORAD_CAT_ID": 34316, "ELEMENT_SET_NO": 999, "REV_AT_EPOCH": 89327, "BSTAR": 0.0010271647, "MEAN_MOTION_DOT": 0.00010413, "MEAN_MOTION_DDOT": 0}, "tle": {"line1": "1 34316U 93036NN  25354.63561755  .00010413  00000+0  10272-2 0  9997", "line2": "2 34316  74.0651 321.0682 0008903  42.4363 317.7507 14.92049590893278"}}, "geometry": {"type": "Point", "coordinates": [91.6921190752754, 68.63607654463154]}}, {"type": "Feature", "properties": {"norad_id": 34317, "name": "COSMOS 2251 DEB", "group": "cosmos-2251-debris", "lat": 8.280669879779287, "lon": 23.145886450916592, "alt_km": 769.3508354032765, "timestamp": "2025-12-21T20:41:08.349836+00:00", "meta": {"OBJECT_NAME": "COSMOS 2251 DEB", "OBJECT_ID": "1993-036NP", "EPOCH": "2025-12-21T12:35:28.319712", "MEAN_MOTION": 13.65131668, "ECCENTRICITY": 0.03368399, "INCLINATION": 73.9243, "RA_OF_ASC_NODE": 21.2957, "ARG_OF_PERICENTER": 8.8579, "MEAN_ANOMALY": 142.9604, "EPHEMERIS_TYPE": 0, "CLASSIFICATION_TYPE": "U", "NORAD_CAT_ID": 34317, "ELEMENT_SET_NO": 999, "REV_AT_EPOCH": 83739, "BSTAR": 0.00048518525, "MEAN_MOTION_DOT": 5.57e-06, "MEAN_MOTION_DDOT": 0}, "tle": {"line1": "1 34317U 93036NP  25355.52463333  .00000557  00000+0  48519-3 0  9994", "line2": "2 34317  73.9243  21.2957 0336839   8.8579 142.9604 13.65131668837399"}}, "geometry": {"type": "Point", "coordinates": [23.145886450916592, 8.280669879779287]}}, {"type": "Feature", "properties": {"norad_id": 34321, "name": "COSMOS 2251 DEB", "group": "cosmos-2251-debris", "lat": -38.91228362190769, "lon": 125.85422083824656, "alt_km": 724.3333316138524, "timestamp": "2025-12-21T20:41:08.349845+00:00", "meta": {"OBJECT_NAME": "COSMOS 2251 DEB", "OBJECT_ID": "1993-036NT", "EPOCH": "2025-12-21T11:11:49.810272", "MEAN_MOTION": 14.50089926, "ECCENTRICITY": 0.0015989, "INCLINATION": 74.0274, "RA_OF_ASC_NODE": 139.9651, "ARG_OF_PERICENTER": 268.903, "MEAN_ANOMALY": 147.2168, "EPHEMERIS_TYPE": 0, "CLASSIFICATION_TYPE": "U", "NORAD_CAT_ID": 34321, "ELEMENT_SET_NO": 999, "REV_AT_EPOCH": 88613, "BSTAR": 0.00044731026, "MEAN_MOTION_DOT": 1.711e-05, "MEAN_MOTION_DDOT": 0}, "tle": {"line1": "1 34321U 93036NT  25355.46654873  .00001711  00000+0  44731-3 0  9998", "line2": "2 34321  74.0274 139.9651 0015989 268.9030 147.2168 14.50089926886132"}}, "geometry": {"type": "Point", "coordinates": [125.85422083824656, -38.91228362190769]}}, {"type": "Feature", "properties": {"norad_id": 34323, "name": "COSMOS 2251 DEB", "group": "cosmos-2251-debris", "lat": 54.29069742551317, "lon": 128.81235779345022, "alt_km": 639.9909691741996, "timestamp": "2025-12-21T20:41:08.349854+00:00", "meta": {"OBJECT_NAME": "COSMOS 2251 DEB", "OBJECT_ID": "1993-036NV", "EPOCH": "2025-12-21T07:32:20.074272", "MEAN_MOTION": 14.74671093, "ECCENTRICITY": 0.0057886, "INCLINATION": 73.9539, "RA_OF_ASC_NODE": 106.2846, "ARG_OF_PERICENTER": 148.3005, "MEAN_ANOMALY": 243.2102, "EPHEMERIS_TYPE": 0, "CLASSIFICATION_TYPE": "U", "NORAD_CAT_ID": 34323, "ELEMENT_SET_NO": 999, "REV_AT_EPOCH": 88566, "BSTAR": 0.001693, "MEAN_MOTION_DOT": 0.00011599, "MEAN_MOTION_DDOT": 0}, "tle": {"line1": "1 34323U 93036NV  25355.31412123  .00011599  00000+0  16930-2 0  9998", "line2": "2 34323  73.9539 106.2846 0057886 148.3005 243.2102 14.74671093885664"}}, "geometry": {"type": "Point", "coordinates": [128.81235779345022, 54.29069742551317]}}, {"type": "Feature", "properties": {"norad_id": 34325, "name": "COSMOS 2251 DEB", "group": "cosmos-2251-debris", "lat": 45.07222584972614, "lon": -20.1310666511004, "alt_km": 802.2196409196149, "timestamp": "2025-12-21T20:41:08.349863+00:00", "meta": {"OBJECT_NAME": "COSMOS 2251 DEB", "OBJECT_ID": "1993-036NX", "EPOCH": "2025-12-21T13:29:29.087808", "MEAN_MOTION": 14.04523922, "ECCENTRICITY": 0.01916227, "INCLINATION": 73.87, "RA_OF_ASC_NODE": 177.2618, "ARG_OF_PERICENTER": 192.9441, "MEAN_ANOMALY": 226.3021, "EPHEMERIS_TYPE": 0, "CLASSIFICATION_TYPE": "U", "NORAD_CAT_ID": 34325, "ELEMENT_SET_NO": 999, "REV_AT_EPOCH": 85639, "BSTAR": 0.0015691683, "MEAN_MOTION_DOT": 2.926e-05, "MEAN_MOTION_DDOT": 0}, "tle": {"line1": "1 34325U 93036NX  25355.56214222  .00002926  00000+0  15692-2 0  9995", "line2": "2 34325  73.8700 177.2618 0191622 192.9441 226.3021 14.04523922856396"}}, "geometry": {"type": "Point", "coordinates": [-20.1310666511004, 45.07222584972614]}}]}